{"type": "FeatureCollection", "features": [{"type": "Feature", "properties": {"name": "Ascent (Stage 1)", "color": "#ff6b35", "stage": "ascent"}, "geometry": {"type": "LineString", "coordinates": [[-48.9540861, -21.9430528], [-48.9540861, -21.9430528], [-48.95408586547841, -21.9430528], [-48.954083906925696, -21.9430528], [-48.95407845218696, -21.943052838620318], [-48.954067747820275, -21.9430524291793], [-48.95405138640785, -21.943048227295904], [-48.95402930661698, -21.94303704106228], [-48.95400206209592, -21.943021515529168], [-48.953971594492096, -21.943003127555198], [-48.953939617683226, -21.94298324158064], [-48.9539069518255, -21.942962794138676], [-48.953874014528864, -21.942942050389394], [-48.95384108390374, -21.942921368388447], [-48.95380837284363, -21.942900864141805], [-48.95377599324786, -21.94288071546525], [-48.953743974563544, -21.94286088557565], [-48.95371228669814, -21.94284138522413], [-48.95368091901795, -21.942822163831963], [-48.953649856000915, -21.94280323592351], [-48.95361907759698, -21.9427845626572], [-48.95358857368716, -21.94276613316001], [-48.9535583276094, -21.942747938221597], [-48.953528326441514, -21.94272995332655], [-48.953498559464876, -21.942712171424137], [-48.95346901355008, -21.94269458048132], [-48.9534396795373, -21.94267716178141], [-48.953410553215896, -21.942659897124106], [-48.95338162032808, -21.942642784982944], [-48.95335286972721, -21.942625817355758], [-48.953324297368724, -21.942608977654086], [-48.95329589582858, -21.94259225714014], [-48.95326765510783, -21.942575651467738], [-48.95323956804146, -21.942559152322556], [-48.95321162931522, -21.942542750056003], [-48.95318383278715, -21.94252643795914], [-48.95315617143245, -21.942510211092348], [-48.95312863907062, -21.94249406425151], [-48.95310123055969, -21.9424779914827], [-48.95307394097613, -21.942461987217527], [-48.95304676542759, -21.94244604704816], [-48.95301969917088, -21.942430167253722], [-48.95299273767124, -21.942414344243012], [-48.95296587694147, -21.942398574592897], [-48.9529391135254, -21.94238285514186], [-48.95291244431102, -21.94236718307236], [-48.95288586649577, -21.942351555978824], [-48.952859377698296, -21.94233597189681], [-48.95283297608794, -21.942320429279565], [-48.95280666041538, -21.942304926939165], [-48.952780430018144, -21.942289464024682], [-48.952754284868405, -21.942274040048368], [-48.95272822557384, -21.942258654881478], [-48.95270225337195, -21.942243308748083], [-48.952676370063905, -21.942228002189033], [-48.952650577836536, -21.942212735977137], [-48.95262487902369, -21.942197511004544], [-48.95259927602059, -21.942182328236083], [-48.95257377105704, -21.942167188598706], [-48.95254836667892, -21.942152093183335], [-48.95252306745492, -21.94213704399965]]}}, {"type": "Feature", "properties": {"name": "Parachute descent (Stage 2)", "color": "#3498db", "stage": "parachute"}, "geometry": {"type": "LineString", "coordinates": [[-48.95252306745492, -21.94213704399965], [-48.95252306745492, -21.94213704399965], [-48.95252306745492, -21.94213704399965], [-48.95252306745492, -21.94213704399965], [-48.95252306745492, -21.94213704399965], [-48.95252306745492, -21.94213704399965], [-48.95252306745492, -21.94213704399965], [-48.95252306745492, -21.94213704399965], [-48.95252306745492, -21.94213704399965], [-48.95252306745492, -21.94213704399965], [-48.95244980541234, -21.942093363694593], [-48.95231677950711, -21.94201093318713], [-48.95226193789771, -21.941964846801632], [-48.95222678353474, -21.941929584467278], [-48.95219623296878, -21.941898585838246], [-48.95216694017417, -21.94187040142719], [-48.95213815350332, -21.941844704549624], [-48.95210969328538, -21.941821415770622], [-48.95208152136875, -21.941800516604836], [-48.9520536311444, -21.94178200279614], [-48.9520260188019, -21.941765870711258], [-48.95199868328907, -21.9417521180177], [-48.951971624534885, -21.941740743358928], [-48.95194484230961, -21.941731744883544], [-48.951918336403935, -21.941725120905787], [-48.951892106713686, -21.94172087013967], [-48.951866153068195, -21.94171899086652], [-48.951840475264916, -21.941719481169116], [-48.951815073091176, -21.941722339143585], [-48.951789946292116, -21.941727562945324], [-48.9517650946019, -21.941735150745224], [-48.95174051781282, -21.941745100660594], [-48.95171621586801, -21.941757410669698], [-48.951692188730696, -21.941772078735855], [-48.951668436076496, -21.94178910334187], [-48.95164495710727, -21.941808483826186], [-48.951621751985904, -21.941830217711615], [-48.95159889384522, -21.941854164138466], [-48.95157657299686, -21.941879959448222], [-48.951554879922476, -21.941907429258602], [-48.95153383893161, -21.941936524274023], [-48.95151345049434, -21.94196723993298], [-48.9514937150403, -21.941999573150454], [-48.9514746322716, -21.942033521738065], [-48.95145620171555, -21.942069084172353], [-48.95143842293544, -21.942106259205048], [-48.951421295319705, -21.94214504513173], [-48.95140481821179, -21.94218544014987], [-48.95138899090709, -21.942227442523603], [-48.95137381267746, -21.942271050557313], [-48.95135928286086, -21.94231626270604], [-48.95134540087358, -21.942363077602288], [-48.951332166071616, -21.942411493696618], [-48.951319577636475, -21.94246150892219], [-48.95130762327265, -21.942513087613506], [-48.95129606908157, -21.942565546375135], [-48.95128468142598, -21.942618202730227], [-48.95127340197472, -21.942670886463304], [-48.9512622191866, -21.94272356404558], [-48.951251130243456, -21.942776227419532], [-48.9512401344675, -21.942828874775998], [-48.95122923160115, -21.942881505690934], [-48.951218421546436, -21.942934120104127], [-48.95120770427356, -21.942986718018748], [-48.951197079752504, -21.943039299437935], [-48.95118654794073, -21.94309186436248], [-48.95117610877632, -21.943144412789565], [-48.951165762195714, -21.943196944716057], [-48.95115550816661, -21.943249460141978], [-48.95114534698079, -21.943301959100147], [-48.95113527816816, -21.94335444158629], [-48.95112530310781, -21.94340690231552], [-48.95111543480433, -21.943459081541008], [-48.95110569572592, -21.94351056453347], [-48.951096095477745, -21.943561192153908], [-48.9510866350151, -21.94361094513789], [-48.95107731455046, -21.943659819718874], [-48.95106812984109, -21.943707841128173], [-48.95105909712072, -21.943754906872257], [-48.95105019348922, -21.943801160887535]]}}, {"type": "Feature", "properties": {"name": "SRAB descent (Stage 3)", "color": "#9b59b6", "stage": "srab"}, "geometry": {"type": "LineString", "coordinates": [[-48.95252306745492, -21.94213704399965], [-48.95251530071757, -21.9421543495165], [-48.95250961953017, -21.942167265706324], [-48.95250514181446, -21.94217772595847], [-48.952501983805945, -21.94218528978798], [-48.95249961949941, -21.942191063016946], [-48.95249747157265, -21.942196393784474], [-48.95249545098126, -21.94220148574065], [-48.95249342198242, -21.94220667643609], [-48.952491519541375, -21.942211615859364], [-48.9524896062497, -21.942216656031988], [-48.952487737191916, -21.94222165168263], [-48.95248585619902, -21.94222675282183], [-48.95248399332982, -21.942231879319365], [-48.952482152760844, -21.94223701901937], [-48.95248030283702, -21.94224226132786], [-48.95247843856258, -21.94224762376221], [-48.952476580083335, -21.94225305087983], [-48.952474704313275, -21.94225861292046], [-48.95247276535802, -21.942264453774243], [-48.95247081664581, -21.942270420188006], [-48.95246876320792, -21.942276814476322], [-48.952466665092146, -21.942283464864985], [-48.95246444218615, -21.942290643808235], [-48.95246205092099, -21.942298524380064], [-48.95245964643694, -21.942306619461622], [-48.952457040317846, -21.942315594471626], [-48.95245422992205, -21.942325517280455], [-48.95245135367429, -21.942335947193182], [-48.95244840700892, -21.94234693479244], [-48.952445281019116, -21.94235894335501], [-48.952442369221004, -21.942370473430206], [-48.9524394718601, -21.94238229482292], [-48.952436594501016, -21.942394398481206], [-48.95243375142053, -21.94240673529456], [-48.952431012770234, -21.94241899517572], [-48.952428554523934, -21.942430267738306], [-48.95242619036101, -21.942441151709012], [-48.95242373955759, -21.942452463273128], [-48.952421179600925, -21.942464310098657], [-48.95241852699036, -21.942476619905925], [-48.95241586962398, -21.94248898698685], [-48.9524132170642, -21.94250136714453], [-48.95241050274281, -21.94251407254384], [-48.95240783414762, -21.942526600700027], [-48.952405220879875, -21.942538904784215], [-48.95240245958428, -21.942551944530308], [-48.95239993980949, -21.942563878746196], [-48.95239737146815, -21.942576077672292], [-48.95239467429419, -21.942588926552308], [-48.952392042766085, -21.94260150060121], [-48.952389429842285, -21.94261402312657], [-48.952386870747354, -21.942626324099965], [-48.9523842223246, -21.942639092753954], [-48.952381568481776, -21.94265192698087], [-48.95237908886371, -21.942663954649024], [-48.95237654503396, -21.94267633026334], [-48.952373886660745, -21.942689302969715], [-48.95237140221594, -21.942701464068936], [-48.95236886373938, -21.94271392707052], [-48.9523663275882, -21.942726416777678], [-48.952363767621854, -21.942739062773075], [-48.95236128335298, -21.942751372649347], [-48.952358792885974, -21.942763750980575], [-48.95235624705341, -21.942776443921748], [-48.95235377528152, -21.94278880611283], [-48.952351300577426, -21.942801221329336], [-48.952348782812976, -21.942813892339707], [-48.95234631058061, -21.94282637360617], [-48.95234383153773, -21.942838928839883], [-48.9523413005468, -21.94285178845872], [-48.95233883251097, -21.942864368781443], [-48.95233649692147, -21.94287631123463], [-48.952334099217396, -21.942888609335796], [-48.95233161367813, -21.94290139902989], [-48.9523291745471, -21.942913990975565], [-48.952326851771474, -21.942926020412155], [-48.95232442222793, -21.94293864302704], [-48.95232201119097, -21.942951210563894], [-48.95231964360317, -21.94296359183435], [-48.952317183251154, -21.942976500858364], [-48.952314859174265, -21.94298873519037], [-48.952312485536105, -21.9430012712616], [-48.95231011998126, -21.943013804768906], [-48.952307850206836, -21.943025834783146], [-48.952305606375205, -21.943037716067824], [-48.95230320572051, -21.943050415189308], [-48.95230088061067, -21.943062702121242], [-48.95229859218717, -21.943074782916288], [-48.952296304973984, -21.943086844965407], [-48.952294046036535, -21.9430987455783], [-48.952291775246444, -21.943110696096312], [-48.95228946212269, -21.943122856269202], [-48.952287278950294, -21.94313432092446], [-48.95228501314011, -21.943146206640655], [-48.952282816085024, -21.94315771893527], [-48.952280586404186, -21.943169389131437], [-48.95227840888687, -21.94318077339969], [-48.95227619499491, -21.943192334545728], [-48.952274054751754, -21.94320349813536], [-48.952271862468926, -21.94321491973566], [-48.95226973783937, -21.943225975678537], [-48.952267533193535, -21.943237434037847], [-48.95226546223596, -21.94324818439086], [-48.95226337723263, -21.943258994534393], [-48.952261221464006, -21.943270157491092], [-48.9522591925334, -21.94328065034801], [-48.95225709703345, -21.943291473687104], [-48.95225506978359, -21.94330193094272], [-48.95225298149254, -21.943312688865706], [-48.95225093400244, -21.943323222352923], [-48.95224889705169, -21.94333368736482], [-48.95224692966271, -21.943343781253976], [-48.95224490696718, -21.943354144562054], [-48.95224284783237, -21.943364679358684], [-48.9522409128492, -21.943374564733165], [-48.95223897379454, -21.943384456801688], [-48.95223701240177, -21.94339444819426], [-48.95223506401946, -21.943404358464445], [-48.9522331086928, -21.943414288894274], [-48.952231229050035, -21.943423820358642], [-48.95222927790037, -21.943433699000952], [-48.95222741709555, -21.943443105306127], [-48.95222553726936, -21.943452592680558], [-48.95222369490433, -21.94346187599442], [-48.952221774544505, -21.943471536191996], [-48.952219974646816, -21.943480575182672], [-48.95221815919312, -21.943489677063315], [-48.95221632058753, -21.943498879113548], [-48.95221452676532, -21.943507841289144], [-48.95221253001628, -21.943517806971688], [-48.952210638739494, -21.943527245307767], [-48.95220877342907, -21.943536553184032], [-48.95220696873346, -21.94354555776576], [-48.95220525825906, -21.943554091477257], [-48.952203442739616, -21.943563148469163], [-48.9522016350303, -21.943572165682127], [-48.952199810493184, -21.943581266009286], [-48.95219802872483, -21.94359015221607], [-48.95219625428054, -21.94359900110968], [-48.95219439436849, -21.94360827537707], [-48.95219262004861, -21.943617122045286], [-48.952190815934955, -21.943626116460965], [-48.95218904327437, -21.943634953279137], [-48.95218719212312, -21.943644180544652], [-48.952185361669486, -21.943653303803867], [-48.952183563231046, -21.943662266684555], [-48.95218180513803, -21.943671027720125], [-48.95217992673784, -21.943680387430838], [-48.952178168110464, -21.943689149543815], [-48.95217634157406, -21.94369824919293], [-48.9521745581095, -21.943707133464805], [-48.952172712605744, -21.94371632595428], [-48.95217094189182, -21.943725145122343], [-48.95216910293807, -21.94373430334331], [-48.95216730970306, -21.94374323307454], [-48.952165480004176, -21.943752343565546], [-48.95216369434286, -21.94376123398666], [-48.95216188934254, -21.943770219893015], [-48.95216007118525, -21.943779270487074], [-48.95215824700518, -21.943788350243075], [-48.952156424120744, -21.94379742273129], [-48.95215458225589, -21.943806588854006], [-48.95215279999847, -21.943815457542932], [-48.95215094870621, -21.94382466892877], [-48.95214918014897, -21.943833467867027], [-48.95214736021646, -21.94384252160553], [-48.95214554358668, -21.94385155810246], [-48.95214369744533, -21.943860740569463], [-48.95214185327201, -21.943869912412833], [-48.95214012394872, -21.943878512301364], [-48.95213826146294, -21.943887773584365], [-48.952136421219706, -21.94389692343082], [-48.95213462781028, -21.943905839617727], [-48.952132776389334, -21.943915043391545], [-48.95213138091048, -21.94392198030777], [-48.952129845810134, -21.94392961128148], [-48.952128204288016, -21.943937771277135], [-48.952126489491505, -21.943946295519297], [-48.95212476853814, -21.943954850367138], [-48.9521229205915, -21.94396403649776], [-48.952121071086445, -21.943973230375224], [-48.9521192891786, -21.943982088227386], [-48.95211748371366, -21.943991063181755], [-48.95211563500994, -21.94400025307576], [-48.95211381460022, -21.944009302320516], [-48.95211200686151, -21.944018288577734], [-48.95211019950582, -21.94402727293097], [-48.95210830040661, -21.944036713340665], [-48.95210656308462, -21.94404534955685], [-48.95210472258054, -21.944054498690498], [-48.95210293195978, -21.94406339985454], [-48.95210111725524, -21.944072420738873], [-48.95209928138216, -21.94408154685185], [-48.952097446194486, -21.944090669557713], [-48.95209565072908, -21.94409959480443], [-48.952093851275755, -21.94410853987506], [-48.95209200421731, -21.94411772159042], [-48.95209014940402, -21.94412694185509], [-48.95208835439357, -21.944135864840266], [-48.952086581957204, -21.944144675609778], [-48.95208474766008, -21.944153793888702], [-48.952082914168244, -21.94416290816456], [-48.952081114350335, -21.944171855047543], [-48.952079255867446, -21.944181093553762]]}}, {"type": "Feature", "properties": {"name": "Estimated impact zone", "stage": "impact"}, "geometry": {"type": "Point", "coordinates": [-48.9520789414522, -21.944182656509888]}}, {"type": "Feature", "properties": {"name": "Launch pad", "stage": "launch"}, "geometry": {"type": "Point", "coordinates": [-48.9540861, -21.9430528]}}]}